STARLINK-5532           
1 55760U 23028V   26068.87818377  .00001075  00000+0  97836-4 0  9998
2 55760  69.9992 243.7677 0003132 266.5125  93.5676 14.98337029166073
BRO-14                  
1 60551U 24149CM  26068.80660918  .00001572  00000+0  14547-3 0  9995
2 60551  97.6931 146.3614 0007930  74.9836 285.2263 14.95926897 85130
